<?xml version='1.0' encoding='utf-8'?>
<kml xmlns="http://www.opengis.net/kml/2.2">
  <Document>
    <name>🌍 Terremotos España - Últimas 24 horas</name>
    <Placemark>
      <Style>
        <LineStyle>
          <color>ff0000ff</color>
          <width>2</width>
        </LineStyle>
        <PolyStyle>
          <color>550000ff</color>
        </PolyStyle>
      </Style>
      <Polygon>
        <outerBoundaryIs>
          <LinearRing>
            <coordinates>-4.9712,37.02280046225045,0 -4.966965661509244,37.02257880501612,0 -4.96280384677203,37.02191762977143,0 -4.9587858336543995,37.02082826067061,0 -4.95498042990586,37.019329355035396,0 -4.951452791853281,37.017446582899986,0 -4.94826330650254,37.015212186196294,0 -4.945466556383932,37.01266442523076,0 -4.94311038498349,37.00984692205055,0 -4.941235078794279,37.00680791207019,0 -4.9398726799365855,37.00359941689922,0 -4.9390464409752965,37.00027635265034,0 -4.938770431052489,36.996895589093,0 -4.93904929980146,36.99351497583363,0 -4.939878202764753,36.9901923522361,0 -4.941242889253047,36.98698455804023,0 -4.943119950803242,36.98394646158846,0 -4.945477225670069,36.981130022234886,0 -4.948274352160961,36.97858340289605,0 -4.951463461140622,36.97635014781913,0 -4.954989995727699,36.9744684395106,0 -4.958793644115578,36.9729704474043,0 -4.962809369602285,36.97188177927891,0 -4.966968520336612,36.97122104468582,0 -4.9712,36.970999537749535,0 -4.975431479663388,36.97122104468582,0 -4.979590630397714,36.97188177927891,0 -4.9836063558844215,36.9729704474043,0 -4.9874100042723,36.9744684395106,0 -4.990936538859376,36.97635014781913,0 -4.994125647839038,36.97858340289605,0 -4.9969227743299305,36.981130022234886,0 -4.999280049196757,36.98394646158846,0 -5.001157110746952,36.98698455804023,0 -5.002521797235246,36.9901923522361,0 -5.003350700198539,36.99351497583363,0 -5.0036295689475105,36.996895589093,0 -5.003353559024703,37.00027635265034,0 -5.002527320063414,37.00359941689922,0 -5.00116492120572,37.00680791207019,0 -4.999289615016509,37.00984692205055,0 -4.996933443616067,37.01266442523076,0 -4.99413669349746,37.015212186196294,0 -4.990947208146718,37.017446582899986,0 -4.987419570094139,37.019329355035396,0 -4.9836141663456,37.02082826067061,0 -4.979596153227969,37.02191762977143,0 -4.975434338490755,37.02257880501612,0 -4.9712,37.02280046225045,0</coordinates>
          </LinearRing>
        </outerBoundaryIs>
      </Polygon>
    </Placemark>
    <Placemark>
      <name>M 1.6 - E ALMARGEN.MA</name>
      <description>
    &lt;![CDATA[
    &lt;h3&gt;🌍 Terremoto&lt;/h3&gt;
    &lt;b&gt;Magnitud:&lt;/b&gt; 1.6 mbLg&lt;br&gt;
    &lt;b&gt;Profundidad:&lt;/b&gt; 4.0 km&lt;br&gt;
    &lt;b&gt;Fecha:&lt;/b&gt; 01/10/2026&lt;br&gt;
    &lt;b&gt;Hora:&lt;/b&gt; 01:13:42 UTC&lt;br&gt;
    &lt;b&gt;Localización:&lt;/b&gt; E ALMARGEN.MA&lt;br&gt;
    &lt;b&gt;Coordenadas:&lt;/b&gt; 36.9969, -4.9712
    ]]&gt;
    </description>
      <Style>
        <LineStyle>
          <color>ff0000ff</color>
          <width>3</width>
        </LineStyle>
        <PolyStyle>
          <color>ffff0000</color>
        </PolyStyle>
      </Style>
      <Polygon>
        <outerBoundaryIs>
          <LinearRing>
            <coordinates>-4.9712,37.00553348741681,0 -4.969788871710105,37.00545961838375,0 -4.9684018963260055,37.0052392756306,0 -4.967062812937639,37.004876230533036,0 -4.965794540121464,37.00437669688189,0 -4.9646187833549185,37.003749224427835,0 -4.963555663290393,37.003004552416094,0 -4.962623371272164,37.00215542562923,0 -4.961837858005027,37.00121637609969,0 -4.961212560706491,37.0002034742419,0 -4.960758173406,36.99913405367753,0 -4.960482464306857,36.99802641447586,0 -4.960390143312588,36.996899509899194,0 -4.9604827819542585,36.99577262202232,0 -4.960758787053659,36.99466503178192,0 -4.961213428535335,36.9935956891037,0 -4.96183892087396,36.992582888749105,0 -4.962624556748424,36.991643957422525,0 -4.963556890585736,36.99079495748309,0 -4.964619968831195,36.99005041231877,0 -4.965795602990422,36.98942305806769,0 -4.967063680766514,36.98892362591975,0 -4.96840250997369,36.98856065870833,0 -4.969789189357521,36.98834036491645,0 -4.9712,36.98826651258318,0 -4.972610810642478,36.98834036491645,0 -4.973997490026309,36.98856065870833,0 -4.975336319233485,36.98892362591975,0 -4.976604397009577,36.98942305806769,0 -4.9777800311688045,36.99005041231877,0 -4.978843109414263,36.99079495748309,0 -4.979775443251575,36.991643957422525,0 -4.980561079126039,36.992582888749105,0 -4.981186571464664,36.9935956891037,0 -4.98164121294634,36.99466503178192,0 -4.981917218045741,36.99577262202232,0 -4.982009856687411,36.996899509899194,0 -4.981917535693142,36.99802641447586,0 -4.981641826593999,36.99913405367753,0 -4.9811874392935085,37.0002034742419,0 -4.980562141994971,37.00121637609969,0 -4.979776628727835,37.00215542562923,0 -4.9788443367096065,37.003004552416094,0 -4.97778121664508,37.003749224427835,0 -4.976605459878535,37.00437669688189,0 -4.97533718706236,37.004876230533036,0 -4.973998103673994,37.0052392756306,0 -4.972611128289894,37.00545961838375,0 -4.9712,37.00553348741681,0</coordinates>
          </LinearRing>
        </outerBoundaryIs>
      </Polygon>
    </Placemark>
    <Placemark>
      <Style>
        <LineStyle>
          <color>ff0000ff</color>
          <width>2</width>
        </LineStyle>
        <PolyStyle>
          <color>550000ff</color>
        </PolyStyle>
      </Style>
      <Polygon>
        <outerBoundaryIs>
          <LinearRing>
            <coordinates>-2.4723,37.89808168335982,0 -2.468283566153634,37.89787388198111,0 -2.4643359216514664,37.89725403686909,0 -2.4605246742569076,37.896232763962196,0 -2.4569150891018614,37.89482755377404,0 -2.45356896832339,37.89306247101654,0 -2.450543590807422,37.89096774140063,0 -2.4478907303721154,37.88857923278357,0 -2.4456557693097007,37.88593783965532,0 -2.443876922494218,37.883088781619,0 -2.442584585288322,37.880080827991776,0 -2.441800816284735,37.87696546190778,0 -2.4415389635399216,37.87379599832372,0 -2.4418034404447675,37.87062667109344,0 -2.4425896547763166,37.8675117047785,0 -2.4438840918331213,37.864504387092026,0 -2.4456645499211147,37.86165615782987,0 -2.4479005238720566,37.85901572982962,0 -2.4505537297851547,37.856628256922555,0 -2.453578761824337,37.85453456301672,0 -2.456923869715017,37.85277044538743,0 -2.4605318435978227,37.8513660639737,0 -2.464340991141204,37.850345427007824,0 -2.4682861903146724,37.84972598166506,0 -2.4723,37.8495183166402,0 -2.476313809685328,37.84972598166506,0 -2.4802590088587957,37.850345427007824,0 -2.4840681564021776,37.8513660639737,0 -2.487676130284983,37.85277044538743,0 -2.4910212381756627,37.85453456301672,0 -2.4940462702148456,37.856628256922555,0 -2.4966994761279437,37.85901572982962,0 -2.498935450078885,37.86165615782987,0 -2.500715908166879,37.864504387092026,0 -2.5020103452236833,37.8675117047785,0 -2.5027965595552324,37.87062667109344,0 -2.5030610364600787,37.87379599832372,0 -2.5027991837152648,37.87696546190778,0 -2.502015414711678,37.880080827991776,0 -2.500723077505782,37.883088781619,0 -2.498944230690299,37.88593783965532,0 -2.4967092696278845,37.88857923278357,0 -2.494056409192578,37.89096774140063,0 -2.4910310316766098,37.89306247101654,0 -2.487684910898139,37.89482755377404,0 -2.4840753257430923,37.896232763962196,0 -2.4802640783485335,37.89725403686909,0 -2.4763164338463657,37.89787388198111,0 -2.4723,37.89808168335982,0</coordinates>
          </LinearRing>
        </outerBoundaryIs>
      </Polygon>
    </Placemark>
    <Placemark>
      <name>M 1.5 - NE HUÉSCAR.GR</name>
      <description>
    &lt;![CDATA[
    &lt;h3&gt;🌍 Terremoto&lt;/h3&gt;
    &lt;b&gt;Magnitud:&lt;/b&gt; 1.5 mbLg&lt;br&gt;
    &lt;b&gt;Profundidad:&lt;/b&gt; 1.0 km&lt;br&gt;
    &lt;b&gt;Fecha:&lt;/b&gt; 01/10/2026&lt;br&gt;
    &lt;b&gt;Hora:&lt;/b&gt; 01:04:33 UTC&lt;br&gt;
    &lt;b&gt;Localización:&lt;/b&gt; NE HUÉSCAR.GR&lt;br&gt;
    &lt;b&gt;Coordenadas:&lt;/b&gt; 37.8738, -2.4723
    ]]&gt;
    </description>
      <Style>
        <LineStyle>
          <color>ff0000ff</color>
          <width>3</width>
        </LineStyle>
        <PolyStyle>
          <color>ffff0000</color>
        </PolyStyle>
      </Style>
      <Polygon>
        <outerBoundaryIs>
          <LinearRing>
            <coordinates>-2.4723,37.88189389445327,0 -2.4709614804876727,37.88182464248771,0 -2.469645870858997,37.88161807189817,0 -2.468375688495633,37.881277718298776,0 -2.4671726725257077,37.880809407038,0 -2.4660574114552833,37.88022115340228,0 -2.465048990581876,37.879523025311975,0 -2.4641646652440907,37.87872697086978,0 -2.4634195655114985,37.87784661372518,0 -2.4628264373720965,37.87689701976978,0 -2.4623954248411017,37.87589443916916,0 -2.4621338967058426,37.874856028158,0 -2.4620463208499146,37.873799555369295,0 -2.4621341882792214,37.87274309773101,0 -2.4623959881176165,37.871704731138635,0 -2.4628272339653865,37.87070222119812,0 -2.463420541135049,37.869752719328744,0 -2.464165753410772,37.868872469420616,0 -2.4650501171349277,37.868076530057316,0 -2.4660584996219765,37.86737851704591,0 -2.4671736481492794,37.86679037064665,0 -2.4683764850889474,37.86632215147191,0 -2.469646434135533,37.86598186853263,0 -2.4709617720610644,37.86577534236188,0 -2.4723,37.86570610554674,0 -2.473638227938936,37.86577534236188,0 -2.474953565864467,37.86598186853263,0 -2.4762235149110525,37.86632215147191,0 -2.4774263518507205,37.86679037064665,0 -2.4785415003780233,37.86737851704591,0 -2.4795498828650726,37.868076530057316,0 -2.4804342465892284,37.868872469420616,0 -2.481179458864951,37.869752719328744,0 -2.481772766034614,37.87070222119812,0 -2.482204011882384,37.871704731138635,0 -2.4824658117207785,37.87274309773101,0 -2.4825536791500857,37.873799555369295,0 -2.4824661032941573,37.874856028158,0 -2.4822045751588986,37.87589443916916,0 -2.4817735626279034,37.87689701976978,0 -2.481180434488502,37.87784661372518,0 -2.480435334755909,37.87872697086978,0 -2.479551009418124,37.879523025311975,0 -2.4785425885447165,37.88022115340228,0 -2.4774273274742926,37.880809407038,0 -2.476224311504367,37.881277718298776,0 -2.474954129141003,37.88161807189817,0 -2.473638519512327,37.88182464248771,0 -2.4723,37.88189389445327,0</coordinates>
          </LinearRing>
        </outerBoundaryIs>
      </Polygon>
    </Placemark>
    <Placemark>
      <Style>
        <LineStyle>
          <color>ff0000ff</color>
          <width>2</width>
        </LineStyle>
        <PolyStyle>
          <color>550000ff</color>
        </PolyStyle>
      </Style>
      <Polygon>
        <outerBoundaryIs>
          <LinearRing>
            <coordinates>-4.8514,37.0026816833598,0 -4.847431357653326,37.00247388415484,0 -4.84353068401597,37.00185404541575,0 -4.839764780456386,37.00083278264626,0 -4.8361981339341185,36.99942758566855,0 -4.832891810109994,36.99766251829351,0 -4.8299024058128195,36.99556780518308,0 -4.827281078969191,36.993179313069,0 -4.825072672709087,36.99053793531612,0 -4.8233149486721585,36.98768889047952,0 -4.822037942592427,36.98468094697682,0 -4.82126345307084,36.981565587252426,0 -4.821004672098504,36.9783961258301,0 -4.821265963412856,36.97522679641687,0 -4.822042792200891,36.972111823723594,0 -4.823321807054431,36.969104495898506,0 -4.825081072477934,36.96625625342864,0 -4.827290447694409,36.963615810051664,0 -4.829912105031358,36.961228320646505,0 -4.83290117883614,36.95913461024506,0 -4.836206533704575,36.957370477246116,0 -4.839771638840517,36.955966082635385,0 -4.843535533626045,36.95494543554377,0 -4.847433867996272,36.954325983835986,0 -4.8514,36.95411831664019,0 -4.855366132003729,36.954325983835986,0 -4.859264466373956,36.95494543554377,0 -4.863028361159484,36.955966082635385,0 -4.866593466295425,36.957370477246116,0 -4.8698988211638605,36.95913461024506,0 -4.872887894968643,36.961228320646505,0 -4.875509552305592,36.963615810051664,0 -4.877718927522067,36.96625625342864,0 -4.8794781929455695,36.969104495898506,0 -4.8807572077991095,36.972111823723594,0 -4.881534036587145,36.97522679641687,0 -4.8817953279014965,36.9783961258301,0 -4.881536546929161,36.981565587252426,0 -4.880762057407573,36.98468094697682,0 -4.879485051327841,36.98768889047952,0 -4.877727327290914,36.99053793531612,0 -4.8755189210308085,36.993179313069,0 -4.872897594187181,36.99556780518308,0 -4.8699081898900065,36.99766251829351,0 -4.866601866065882,36.99942758566855,0 -4.863035219543614,37.00083278264626,0 -4.85926931598403,37.00185404541575,0 -4.855368642346675,37.00247388415484,0 -4.8514,37.0026816833598,0</coordinates>
          </LinearRing>
        </outerBoundaryIs>
      </Polygon>
    </Placemark>
    <Placemark>
      <name>M 1.5 - E TEBA.MA</name>
      <description>
    &lt;![CDATA[
    &lt;h3&gt;🌍 Terremoto&lt;/h3&gt;
    &lt;b&gt;Magnitud:&lt;/b&gt; 1.5 mbLg&lt;br&gt;
    &lt;b&gt;Profundidad:&lt;/b&gt; 0.0 km&lt;br&gt;
    &lt;b&gt;Fecha:&lt;/b&gt; 30/09/2026&lt;br&gt;
    &lt;b&gt;Hora:&lt;/b&gt; 23:22:34 UTC&lt;br&gt;
    &lt;b&gt;Localización:&lt;/b&gt; E TEBA.MA&lt;br&gt;
    &lt;b&gt;Coordenadas:&lt;/b&gt; 36.9784, -4.8514
    ]]&gt;
    </description>
      <Style>
        <LineStyle>
          <color>ff0000ff</color>
          <width>3</width>
        </LineStyle>
        <PolyStyle>
          <color>ffff0000</color>
        </PolyStyle>
      </Style>
      <Polygon>
        <outerBoundaryIs>
          <LinearRing>
            <coordinates>-4.8514,36.98649389445326,0 -4.850077398330953,36.98642464272912,0 -4.848777433863951,36.986218072847386,0 -4.847522355986729,36.98587772037394,0 -4.846333645127125,36.985409410580495,0 -4.845231644828609,36.98482115865347,0 -4.844235213368679,36.98412303239673,0 -4.843361400901357,36.98332697978803,0 -4.842625157660718,36.98244662435186,0 -4.842039078222461,36.981497031863384,0 -4.8416131861948974,36.980494452388236,0 -4.841354763010511,36.97945604208439,0 -4.841268223727152,36.978399569536656,0 -4.84135504193744,36.97734311165661,0 -4.8416137250403475,36.976304744356234,0 -4.8420398402650076,36.975302233289725,0 -4.842626090968422,36.974352729953125,0 -4.843362441870844,36.97347247833651,0 -4.844236291059599,36.97267653713992,0 -4.845232685798107,36.97197852229529,0 -4.846334578434849,36.97139037418782,0 -4.847523118029297,36.970922153546255,0 -4.848777972709421,36.97058186948146,0 -4.850077677257893,36.970375342603184,0 -4.8514,36.97030610554673,0 -4.852722322742107,36.970375342603184,0 -4.85402202729058,36.97058186948146,0 -4.8552768819707035,36.970922153546255,0 -4.856465421565152,36.97139037418782,0 -4.857567314201893,36.97197852229529,0 -4.858563708940402,36.97267653713992,0 -4.859437558129157,36.97347247833651,0 -4.8601739090315785,36.974352729953125,0 -4.860760159734993,36.975302233289725,0 -4.861186274959653,36.976304744356234,0 -4.8614449580625605,36.97734311165661,0 -4.861531776272849,36.978399569536656,0 -4.86144523698949,36.97945604208439,0 -4.861186813805102,36.980494452388236,0 -4.86076092177754,36.981497031863384,0 -4.8601748423392825,36.98244662435186,0 -4.8594385990986435,36.98332697978803,0 -4.858564786631322,36.98412303239673,0 -4.8575683551713915,36.98482115865347,0 -4.856466354872876,36.985409410580495,0 -4.855277644013272,36.98587772037394,0 -4.85402256613605,36.986218072847386,0 -4.852722601669048,36.98642464272912,0 -4.8514,36.98649389445326,0</coordinates>
          </LinearRing>
        </outerBoundaryIs>
      </Polygon>
    </Placemark>
    <Placemark>
      <Style>
        <LineStyle>
          <color>ff0000ff</color>
          <width>2</width>
        </LineStyle>
        <PolyStyle>
          <color>550000ff</color>
        </PolyStyle>
      </Style>
      <Polygon>
        <outerBoundaryIs>
          <LinearRing>
            <coordinates>-4.7901,37.119550693375686,0 -4.783740393792032,37.11921815057119,0 -4.777489767356354,37.11822622073417,0 -4.771455224509922,37.116591901496705,0 -4.765740150030014,37.11434319697382,0 -4.760442431696148,37.11151863584054,0 -4.755652778496318,37.10816660849417,0 -4.751453164245018,37.10434453489,0 -4.74791542353715,37.10011787757559,0 -4.7451000241580275,37.09555901711887,0 -4.7430550368468545,37.09074600947796,0 -4.7418153197384685,37.08576124685984,0 -4.741401930960389,37.08069004522464,0 -4.741821778817034,37.075619182789964,0 -4.743067514829069,37.07063541465749,0 -4.745117670691086,37.06582398901493,0 -4.747937036040216,37.06126719025885,0 -4.751477269862788,37.05704293384607,0 -4.75567773447139,37.053223436727116,0 -4.760466537320063,37.049873985866434,0 -4.765761762543725,37.04705182563599,0 -4.771472871055272,37.04480518281542,0 -4.777502245349213,37.04317244557799,0 -4.783746852876742,37.04218151022784,0 -4.7901,37.041849306624314,0 -4.796453147123257,37.04218151022784,0 -4.8026977546507865,37.04317244557799,0 -4.808727128944727,37.04480518281542,0 -4.814438237456274,37.04705182563599,0 -4.819733462679936,37.049873985866434,0 -4.82452226552861,37.053223436727116,0 -4.828722730137212,37.05704293384607,0 -4.832262963959782,37.06126719025885,0 -4.8350823293089125,37.06582398901493,0 -4.8371324851709305,37.07063541465749,0 -4.838378221182965,37.075619182789964,0 -4.838798069039609,37.08069004522464,0 -4.83838468026153,37.08576124685984,0 -4.837144963153144,37.09074600947796,0 -4.835099975841972,37.09555901711887,0 -4.8322845764628495,37.10011787757559,0 -4.828746835754981,37.10434453489,0 -4.824547221503682,37.10816660849417,0 -4.819757568303852,37.11151863584054,0 -4.814459849969985,37.11434319697382,0 -4.808744775490077,37.116591901496705,0 -4.802710232643645,37.11822622073417,0 -4.796459606207967,37.11921815057119,0 -4.7901,37.119550693375686,0</coordinates>
          </LinearRing>
        </outerBoundaryIs>
      </Polygon>
    </Placemark>
    <Placemark>
      <name>M 2.4 - NE CAMPILLOS.MA</name>
      <description>
    &lt;![CDATA[
    &lt;h3&gt;🌍 Terremoto&lt;/h3&gt;
    &lt;b&gt;Magnitud:&lt;/b&gt; 2.4 mbLg&lt;br&gt;
    &lt;b&gt;Profundidad:&lt;/b&gt; 7.0 km&lt;br&gt;
    &lt;b&gt;Fecha:&lt;/b&gt; 30/09/2026&lt;br&gt;
    &lt;b&gt;Hora:&lt;/b&gt; 23:14:30 UTC&lt;br&gt;
    &lt;b&gt;Localización:&lt;/b&gt; NE CAMPILLOS.MA&lt;br&gt;
    &lt;b&gt;Coordenadas:&lt;/b&gt; 37.0807, -4.7901
    ]]&gt;
    </description>
      <Style>
        <LineStyle>
          <color>ff0000ff</color>
          <width>3</width>
        </LineStyle>
        <PolyStyle>
          <color>ffff0000</color>
        </PolyStyle>
      </Style>
      <Polygon>
        <outerBoundaryIs>
          <LinearRing>
            <coordinates>-4.7901,37.09365023112524,0 -4.787980849707368,37.093539421253176,0 -4.785897976989916,37.09320888858718,0 -4.783887037453573,37.09266429145482,0 -4.781982453493153,37.091914952552976,0 -4.780216824315904,37.09097369912772,0 -4.778620367393326,37.08985664309766,0 -4.7772204009504655,37.08858290490991,0 -4.776040876380216,37.08717428588571,0 -4.7751019685941625,37.085654894695516,0 -4.774419731307804,37.08405073438891,0 -4.774005823125147,37.08238925707699,0 -4.7738673090570165,37.080698893913755,0 -4.774006540800799,37.079008568439484,0 -4.774421117750703,37.07734720162605,0 -4.775103929320532,37.075743217097134,0 -4.776043277769807,37.07422405498489,0 -4.777223079352562,37.072815702727624,0 -4.778623140279256,37.07154225081606,0 -4.780219502718076,37.07042548106218,0 -4.781984854882877,37.06948449440389,0 -4.783888998180093,37.06873538458001,0 -4.7858993634329465,37.068190963225355,0 -4.787981567383094,37.067860541057854,0 -4.7901,37.06774976887477,0 -4.792218432616906,37.067860541057854,0 -4.794300636567052,37.068190963225355,0 -4.796311001819905,37.06873538458001,0 -4.798215145117123,37.06948449440389,0 -4.799980497281924,37.07042548106218,0 -4.801576859720743,37.07154225081606,0 -4.8029769206474375,37.072815702727624,0 -4.804156722230192,37.07422405498489,0 -4.805096070679467,37.075743217097134,0 -4.805778882249296,37.07734720162605,0 -4.806193459199201,37.079008568439484,0 -4.806332690942982,37.080698893913755,0 -4.806194176874852,37.08238925707699,0 -4.805780268692195,37.08405073438891,0 -4.805098031405836,37.085654894695516,0 -4.804159123619784,37.08717428588571,0 -4.802979599049533,37.08858290490991,0 -4.801579632606674,37.08985664309766,0 -4.799983175684095,37.09097369912772,0 -4.798217546506846,37.091914952552976,0 -4.796312962546427,37.09266429145482,0 -4.794302023010083,37.09320888858718,0 -4.792219150292632,37.093539421253176,0 -4.7901,37.09365023112524,0</coordinates>
          </LinearRing>
        </outerBoundaryIs>
      </Polygon>
    </Placemark>
    <Placemark>
      <Style>
        <LineStyle>
          <color>ff0000ff</color>
          <width>2</width>
        </LineStyle>
        <PolyStyle>
          <color>550000ff</color>
        </PolyStyle>
      </Style>
      <Polygon>
        <outerBoundaryIs>
          <LinearRing>
            <coordinates>-16.1821,28.032919241141112,0 -16.178030594245563,28.03268375030426,0 -16.174030869803996,28.03198131016844,0 -16.17016931212786,28.03082394865383,0 -16.16651203565638,28.02923148281212,0 -16.163121649705687,28.027231178776667,0 -16.160056185003693,28.0248572839616,0 -16.157368099386986,28.022150439601027,0 -16.15510337976663,28.019156983780952,0 -16.153300755759684,28.01592815699762,0 -16.15199103840803,28.01251922394344,0 -16.15119659520337,28.008988526647617,0 -16.150930970249412,28.005396485258686,0 -16.151198655863592,28.001804563631634,0 -16.151995019297956,27.99827421745987,0 -16.15330638558837,27.994865842963428,0 -16.155110274870697,27.99163774410674,0 -16.157375789876614,27.98864513597525,0 -16.16006414678479,27.985939201296635,0 -16.16312934019603,27.98356621616359,0 -16.166518930761693,27.981566759816886,0 -16.170174941957985,27.97997502190205,0 -16.17403485069517,27.978818218945396,0 -16.178032654906502,27.978116129933802,0 -16.1821,27.977880758858884,0 -16.18616734509349,27.978116129933802,0 -16.19016514930483,27.978818218945396,0 -16.19402505804201,27.97997502190205,0 -16.197681069238303,27.981566759816886,0 -16.201070659803964,27.98356621616359,0 -16.204135853215202,27.985939201296635,0 -16.206824210123383,27.98864513597525,0 -16.2090897251293,27.99163774410674,0 -16.210893614411624,27.994865842963428,0 -16.21220498070204,27.99827421745987,0 -16.213001344136405,28.001804563631634,0 -16.213269029750585,28.005396485258686,0 -16.213003404796623,28.008988526647617,0 -16.212208961591966,28.01251922394344,0 -16.21089924424031,28.01592815699762,0 -16.209096620233368,28.019156983780952,0 -16.206831900613007,28.022150439601027,0 -16.204143814996304,28.0248572839616,0 -16.20107835029431,28.027231178776667,0 -16.19768796434362,28.02923148281212,0 -16.194030687872132,28.03082394865383,0 -16.190169130195997,28.03198131016844,0 -16.18616940575443,28.03268375030426,0 -16.1821,28.032919241141112,0</coordinates>
          </LinearRing>
        </outerBoundaryIs>
      </Polygon>
    </Placemark>
    <Placemark>
      <name>M 1.7 - ATLÁNTICO-CANARIAS</name>
      <description>
    &lt;![CDATA[
    &lt;h3&gt;🌍 Terremoto&lt;/h3&gt;
    &lt;b&gt;Magnitud:&lt;/b&gt; 1.7 mbLg&lt;br&gt;
    &lt;b&gt;Profundidad:&lt;/b&gt; 11.0 km&lt;br&gt;
    &lt;b&gt;Fecha:&lt;/b&gt; 30/09/2026&lt;br&gt;
    &lt;b&gt;Hora:&lt;/b&gt; 23:12:09 UTC&lt;br&gt;
    &lt;b&gt;Localización:&lt;/b&gt; ATLÁNTICO-CANARIAS&lt;br&gt;
    &lt;b&gt;Coordenadas:&lt;/b&gt; 28.0054, -16.1821
    ]]&gt;
    </description>
      <Style>
        <LineStyle>
          <color>ff0000ff</color>
          <width>3</width>
        </LineStyle>
        <PolyStyle>
          <color>ffff0000</color>
        </PolyStyle>
      </Style>
      <Polygon>
        <outerBoundaryIs>
          <LinearRing>
            <coordinates>-16.1821,28.014573080380373,0 -16.180743760545518,28.014494596751426,0 -16.179410732569465,28.014260489081003,0 -16.178123729996887,28.013874764012375,0 -16.17690477847549,28.013344022992968,0 -16.175774738191866,28.012677349213703,0 -16.174752946703368,28.011886152052302,0 -16.173856887913498,28.01098397169171,0 -16.173101892865287,28.009986247267904,0 -16.172500877475606,28.008910052526165,0 -16.17206412169434,28.00777380352072,0 -16.171799093856443,28.0065969433703,0 -16.171710323215606,28.005399609473177,0 -16.171799322818718,28.004202288882933,0 -16.17206456401549,28.00302546774631,0 -16.172501503012175,28.001889280802846,0 -16.173102658987997,28.000813166941857,0 -16.173857742412352,27.999815536705686,0 -16.17475383134568,27.99891345742087,0 -16.17577559269073,27.99812236133525,0 -16.176905544598213,27.99745578174362,0 -16.178124355533473,27.996925121604967,0 -16.17941117489063,27.996539458598324,0 -16.1807439895078,27.996305389941696,0 -16.1821,27.99622691961963,0 -16.183456010492193,27.996305389941696,0 -16.184788825109365,27.996539458598324,0 -16.18607564446652,27.996925121604967,0 -16.187294455401783,27.99745578174362,0 -16.188424407309267,27.99812236133525,0 -16.189446168654314,27.99891345742087,0 -16.19034225758764,27.999815536705686,0 -16.191097341012,28.000813166941857,0 -16.191698496987822,28.001889280802846,0 -16.192135435984508,28.00302546774631,0 -16.192400677181276,28.004202288882933,0 -16.19248967678439,28.005399609473177,0 -16.192400906143554,28.0065969433703,0 -16.192135878305653,28.00777380352072,0 -16.19169912252439,28.008910052526165,0 -16.191098107134707,28.009986247267904,0 -16.190343112086495,28.01098397169171,0 -16.18944705329663,28.011886152052302,0 -16.188425261808128,28.012677349213703,0 -16.187295221524508,28.013344022992968,0 -16.186076270003106,28.013874764012375,0 -16.184789267430528,28.014260489081003,0 -16.18345623945448,28.014494596751426,0 -16.1821,28.014573080380373,0</coordinates>
          </LinearRing>
        </outerBoundaryIs>
      </Polygon>
    </Placemark>
    <Placemark>
      <Style>
        <LineStyle>
          <color>ff0000ff</color>
          <width>2</width>
        </LineStyle>
        <PolyStyle>
          <color>550000ff</color>
        </PolyStyle>
      </Style>
      <Polygon>
        <outerBoundaryIs>
          <LinearRing>
            <coordinates>-8.8939,36.99641924114111,0 -8.889402577447537,36.99618372542003,0 -8.884982189398613,36.99548121232891,0 -8.880714546653147,36.99432373476409,0 -8.876672735637333,36.992731117692536,0 -8.87292596337997,36.9907306375616,0 -8.869538369916175,36.988356553794084,0 -8.866567928673616,36.98564952050806,0 -8.864065453802876,36.982655888669726,0 -8.862073731485586,36.979426910773334,0 -8.860626790031441,36.976017861809304,0 -8.859749321102877,36.97248709170323,0 -8.859456261733303,36.96889502556086,0 -8.85975254398283,36.965303128918336,0 -8.860633016157555,36.961772855760685,0 -8.862082536557923,36.95836459732747,0 -8.864076237770615,36.95513664967095,0 -8.86657995662744,36.95214421757243,0 -8.869550822171059,36.94943847176594,0 -8.872937991335325,36.94706567547808,0 -8.876683519607724,36.94506639508726,0 -8.88072335172855,36.943474808256,0 -8.884988415527383,36.9423181212224,0 -8.889405800329023,36.94161610508001,0 -8.8939,36.941380758858884,0 -8.898394199670978,36.94161610508001,0 -8.902811584472618,36.9423181212224,0 -8.90707664827145,36.943474808256,0 -8.911116480392275,36.94506639508726,0 -8.914862008664675,36.94706567547808,0 -8.918249177828942,36.94943847176594,0 -8.92122004337256,36.95214421757243,0 -8.923723762229386,36.95513664967095,0 -8.925717463442078,36.95836459732747,0 -8.927166983842445,36.961772855760685,0 -8.92804745601717,36.965303128918336,0 -8.928343738266696,36.96889502556086,0 -8.928050678897122,36.97248709170323,0 -8.92717320996856,36.976017861809304,0 -8.925726268514415,36.979426910773334,0 -8.923734546197124,36.982655888669726,0 -8.921232071326383,36.98564952050806,0 -8.918261630083826,36.988356553794084,0 -8.91487403662003,36.9907306375616,0 -8.911127264362667,36.992731117692536,0 -8.907085453346852,36.99432373476409,0 -8.902817810601388,36.99548121232891,0 -8.898397422552462,36.99618372542003,0 -8.8939,36.99641924114111,0</coordinates>
          </LinearRing>
        </outerBoundaryIs>
      </Polygon>
    </Placemark>
    <Placemark>
      <name>M 1.7 - SE SAGRES.POR</name>
      <description>
    &lt;![CDATA[
    &lt;h3&gt;🌍 Terremoto&lt;/h3&gt;
    &lt;b&gt;Magnitud:&lt;/b&gt; 1.7 mbLg&lt;br&gt;
    &lt;b&gt;Profundidad:&lt;/b&gt; 21.0 km&lt;br&gt;
    &lt;b&gt;Fecha:&lt;/b&gt; 30/09/2026&lt;br&gt;
    &lt;b&gt;Hora:&lt;/b&gt; 20:44:40 UTC&lt;br&gt;
    &lt;b&gt;Localización:&lt;/b&gt; SE SAGRES.POR&lt;br&gt;
    &lt;b&gt;Coordenadas:&lt;/b&gt; 36.9689, -8.8939
    ]]&gt;
    </description>
      <Style>
        <LineStyle>
          <color>ff0000ff</color>
          <width>3</width>
        </LineStyle>
        <PolyStyle>
          <color>ffff0000</color>
        </PolyStyle>
      </Style>
      <Polygon>
        <outerBoundaryIs>
          <LinearRing>
            <coordinates>-8.8939,36.97807308038037,0 -8.892401217518005,36.97799459398764,0 -8.890928088762271,36.977760478214265,0 -8.889505827893302,36.977374740255875,0 -8.888158777503707,36.97684398243858,0 -8.886909991611004,36.976177289098324,0 -8.885780840814478,36.97538607094617,0 -8.88479064639805,36.97448386959583,0 -8.883956349656126,36.97348612561389,0 -8.88329222210587,36.97240991407858,0 -8.8828096215386,36.97127365218858,0 -8.882516798067845,36.97009678394058,0 -8.88241875346648,36.968899447284514,0 -8.882517156165681,36.96770212946178,0 -8.882810313330499,36.96652531643028,0 -8.883293200447358,36.965389142377056,0 -8.883957547874854,36.96431304531287,0 -8.884791982837394,36.96331543463538,0 -8.885782224398307,36.962413376338326,0 -8.886911328050367,36.96162230123947,0 -8.888159975722468,36.96095574120367,0 -8.889506806234827,36.960425097857495,0 -8.890928780554201,36.9600394477359,0 -8.892401575615859,36.95980538717904,0 -8.8939,36.95972691961963,0 -8.89539842438414,36.95980538717904,0 -8.8968712194458,36.9600394477359,0 -8.898293193765173,36.960425097857495,0 -8.899640024277533,36.96095574120367,0 -8.900888671949632,36.96162230123947,0 -8.902017775601694,36.962413376338326,0 -8.903008017162607,36.96331543463538,0 -8.903842452125147,36.96431304531287,0 -8.904506799552642,36.965389142377056,0 -8.904989686669502,36.96652531643028,0 -8.90528284383432,36.96770212946178,0 -8.905381246533521,36.968899447284514,0 -8.905283201932155,36.97009678394058,0 -8.9049903784614,36.97127365218858,0 -8.90450777789413,36.97240991407858,0 -8.903843650343873,36.97348612561389,0 -8.90300935360195,36.97448386959583,0 -8.902019159185523,36.97538607094617,0 -8.900890008388995,36.976177289098324,0 -8.899641222496292,36.97684398243858,0 -8.898294172106699,36.977374740255875,0 -8.89687191123773,36.977760478214265,0 -8.895398782481996,36.97799459398764,0 -8.8939,36.97807308038037,0</coordinates>
          </LinearRing>
        </outerBoundaryIs>
      </Polygon>
    </Placemark>
    <Placemark>
      <Style>
        <LineStyle>
          <color>ff0000ff</color>
          <width>2</width>
        </LineStyle>
        <PolyStyle>
          <color>550000ff</color>
        </PolyStyle>
      </Style>
      <Polygon>
        <outerBoundaryIs>
          <LinearRing>
            <coordinates>-3.5786,37.140781683359805,0 -3.5746241241145853,37.14057388382295,0 -3.570716341146184,37.139954044110844,0 -3.5669435745156832,37.13893277979356,0 -3.5633704289634744,37.13752758079885,0 -3.5600580816203773,37.135762511075185,0 -3.5570632325486513,37.13366779544466,0 -3.5544371328939284,37.13127930081088,0 -3.552224707391911,37.12863792071044,0 -3.5504637862824087,37.12578887385846,0 -3.549184459731909,37.1227809288099,0 -3.548408565693265,37.11966556811449,0 -3.548149319779645,37.11649610636208,0 -3.54841109324446,37.11332677728213,0 -3.5491893425859558,37.1102118055627,0 -3.5504706916810367,37.10720447928559,0 -3.552233164743803,37.1043562388323,0 -3.554446565844692,37.101715797803074,0 -3.557072998258375,37.09932831091691,0 -3.560067514572082,37.09723460303407,0 -3.563378886316996,37.095470472381805,0 -3.5669504799161924,37.09406607978605,0 -3.5707212240018604,37.09304543424047,0 -3.5746266516667213,37.09242598350452,0 -3.5786,37.0922183166402,0 -3.5825733483332782,37.09242598350452,0 -3.5864787759981387,37.09304543424047,0 -3.590249520083807,37.09406607978605,0 -3.593821113683003,37.095470472381805,0 -3.5971324854279176,37.09723460303407,0 -3.6001270017416247,37.09932831091691,0 -3.6027534341553076,37.101715797803074,0 -3.6049668352561968,37.1043562388323,0 -3.6067293083189624,37.10720447928559,0 -3.6080106574140434,37.1102118055627,0 -3.6087889067555388,37.11332677728213,0 -3.609050680220354,37.11649610636208,0 -3.608791434306734,37.11966556811449,0 -3.608015540268091,37.1227809288099,0 -3.60673621371759,37.12578887385846,0 -3.6049752926080885,37.12863792071044,0 -3.602762867106071,37.13127930081088,0 -3.6001367674513483,37.13366779544466,0 -3.597141918379622,37.135762511075185,0 -3.5938295710365247,37.13752758079885,0 -3.5902564254843163,37.13893277979356,0 -3.5864836588538154,37.139954044110844,0 -3.582575875885414,37.14057388382295,0 -3.5786,37.140781683359805,0</coordinates>
          </LinearRing>
        </outerBoundaryIs>
      </Polygon>
    </Placemark>
    <Placemark>
      <name>M 1.5 - SE LA ZUBIA.GR</name>
      <description>
    &lt;![CDATA[
    &lt;h3&gt;🌍 Terremoto&lt;/h3&gt;
    &lt;b&gt;Magnitud:&lt;/b&gt; 1.5 mbLg&lt;br&gt;
    &lt;b&gt;Profundidad:&lt;/b&gt; 6.0 km&lt;br&gt;
    &lt;b&gt;Fecha:&lt;/b&gt; 30/09/2026&lt;br&gt;
    &lt;b&gt;Hora:&lt;/b&gt; 19:50:56 UTC&lt;br&gt;
    &lt;b&gt;Localización:&lt;/b&gt; SE LA ZUBIA.GR&lt;br&gt;
    &lt;b&gt;Coordenadas:&lt;/b&gt; 37.1165, -3.5786
    ]]&gt;
    </description>
      <Style>
        <LineStyle>
          <color>ff0000ff</color>
          <width>3</width>
        </LineStyle>
        <PolyStyle>
          <color>ffff0000</color>
        </PolyStyle>
      </Style>
      <Polygon>
        <outerBoundaryIs>
          <LinearRing>
            <coordinates>-3.5786,37.12459389445326,0 -3.577274989065024,37.124524642692265,0 -3.5759726566041237,37.12431807270246,0 -3.5747152925675554,37.123977720057106,0 -3.573524416539039,37.12350941003962,0 -3.572420409138651,37.1229211578517,0 -3.5714221630047875,37.122223031315016,0 -3.5705467593474562,37.12142697842637,0 -3.5698091756199872,37.12054662272935,0 -3.569222029315322,37.119597030016905,0 -3.5687953622661657,37.11859445036991,0 -3.568536469126768,37.11755603995807,0 -3.568449772950556,37.116499567373545,0 -3.568536749965829,37.11544310953042,0 -3.56879590480557,37.11440474233814,0 -3.5692227965819088,37.113402231443544,0 -3.569810115325809,37.112452728330965,0 -3.5705478074531154,37.111572476975205,0 -3.5714232480836166,37.110776536058516,0 -3.572421457244322,37.1100785214938,0 -3.5735253562448803,37.10949037364714,0 -3.574716059834165,37.10902215322953,0 -3.5759731991435486,37.108681869336586,0 -3.5772752699040966,37.10847534256634,0 -3.5786,37.108406105546734,0 -3.579924730095903,37.10847534256634,0 -3.581226800856451,37.108681869336586,0 -3.5824839401658344,37.10902215322953,0 -3.5836746437551183,37.10949037364714,0 -3.5847785427556773,37.1100785214938,0 -3.585776751916383,37.110776536058516,0 -3.5866521925468837,37.111572476975205,0 -3.587389884674191,37.112452728330965,0 -3.5879772034180903,37.113402231443544,0 -3.5884040951944294,37.11440474233814,0 -3.588663250034171,37.11544310953042,0 -3.588750227049443,37.116499567373545,0 -3.588663530873231,37.11755603995807,0 -3.588404637733834,37.11859445036991,0 -3.5879779706846775,37.119597030016905,0 -3.5873908243800123,37.12054662272935,0 -3.586653240652543,37.12142697842637,0 -3.5857778369952125,37.122223031315016,0 -3.5847795908613485,37.1229211578517,0 -3.5836755834609604,37.12350941003962,0 -3.5824847074324446,37.123977720057106,0 -3.5812273433958755,37.12431807270246,0 -3.5799250109349754,37.124524642692265,0 -3.5786,37.12459389445326,0</coordinates>
          </LinearRing>
        </outerBoundaryIs>
      </Polygon>
    </Placemark>
    <Placemark>
      <Style>
        <LineStyle>
          <color>ff0000ff</color>
          <width>2</width>
        </LineStyle>
        <PolyStyle>
          <color>550000ff</color>
        </PolyStyle>
      </Style>
      <Polygon>
        <outerBoundaryIs>
          <LinearRing>
            <coordinates>5.8599,39.689463366719615,0 5.868137312939509,39.689047609588734,0 5.8762333899480685,39.68780746678804,0 5.884049431725042,39.68576420110379,0 5.891451469163579,39.682952842722194,0 5.898312671612488,39.679421585111086,0 5.904515529244873,39.675230954239986,0 5.909953871355225,39.67045276577718,0 5.9145346855304455,39.665168888599446,0 5.918179706399129,39.6594698362983,0 5.920826746968452,39.653453211308836,0 5.922430750310482,39.64722202877078,0 5.922964544454238,39.6408829492184,0 5.922419288668485,39.634544450656655,0 5.920804604774536,39.628314971497076,0 5.918148392603948,39.62230105619188,0 5.914496334113625,39.616605535220764,0 5.909911095899177,39.61132577036503,0 5.904471244824351,39.60655199496857,0 5.898269896137568,39.60236577716514,0 5.891413117714072,39.59883863187962,0 5.884018117892117,39.59603080483299,0 5.876211247721463,39.593990248837926,0 5.868125851278641,39.59275180941932,0 5.8599,39.5923366332804,0 5.851674148721358,39.59275180941932,0 5.843588752278535,39.593990248837926,0 5.835781882107882,39.59603080483299,0 5.828386882285927,39.59883863187962,0 5.821530103862431,39.60236577716514,0 5.815328755175648,39.60655199496857,0 5.809888904100823,39.61132577036503,0 5.805303665886374,39.616605535220764,0 5.8016516073960505,39.62230105619188,0 5.798995395225464,39.628314971497076,0 5.797380711331514,39.634544450656655,0 5.796835455545761,39.6408829492184,0 5.797369249689518,39.64722202877078,0 5.798973253031546,39.653453211308836,0 5.8016202936008705,39.6594698362983,0 5.805265314469553,39.665168888599446,0 5.809846128644773,39.67045276577718,0 5.8152844707551266,39.675230954239986,0 5.82148732838751,39.679421585111086,0 5.828348530836419,39.682952842722194,0 5.835750568274958,39.68576420110379,0 5.843566610051931,39.68780746678804,0 5.8516626870604895,39.689047609588734,0 5.8599,39.689463366719615,0</coordinates>
          </LinearRing>
        </outerBoundaryIs>
      </Polygon>
    </Placemark>
    <Placemark>
      <name>M 3.0 - MEDITERRÁNEO-BALEARES</name>
      <description>
    &lt;![CDATA[
    &lt;h3&gt;🌍 Terremoto&lt;/h3&gt;
    &lt;b&gt;Magnitud:&lt;/b&gt; 3.0 M(mb)&lt;br&gt;
    &lt;b&gt;Profundidad:&lt;/b&gt; 0.0 km&lt;br&gt;
    &lt;b&gt;Fecha:&lt;/b&gt; 30/09/2026&lt;br&gt;
    &lt;b&gt;Hora:&lt;/b&gt; 19:40:13 UTC&lt;br&gt;
    &lt;b&gt;Localización:&lt;/b&gt; MEDITERRÁNEO-BALEARES&lt;br&gt;
    &lt;b&gt;Coordenadas:&lt;/b&gt; 39.6409, 5.8599
    ]]&gt;
    </description>
      <Style>
        <LineStyle>
          <color>ff0000ff</color>
          <width>3</width>
        </LineStyle>
        <PolyStyle>
          <color>ffff0000</color>
        </PolyStyle>
      </Style>
      <Polygon>
        <outerBoundaryIs>
          <LinearRing>
            <coordinates>5.8599,39.657087788906544,0 5.862644495711979,39.65694926783996,0 5.865341999815394,39.656536076423144,0 5.867946326960003,39.65585528931047,0 5.870412890365354,39.65491856264858,0 5.872699466487535,39.653741934111814,0 5.87476691883642,39.65234554780945,0 5.876579868465907,39.65075330881852,0 5.8781072996067305,39.64899247330748,0 5.879323090059794,39.64709318132207,0 5.880206457295258,39.64508794028597,0 5.8807423126833696,39.64301106810762,0 5.880921517889372,39.6408981054684,0 5.880741039166796,39.6387852073838,0 5.8802039970501365,39.636708524469924,0 5.879319610747725,39.63470358451014,0 5.878103038337033,39.63280468489504,0 5.876575115637031,39.63104430630892,0 5.874761998345774,39.62945255765884,0 5.872694713658426,39.62805666169734,0 5.870408629095254,39.62688049008553,0 5.867942847647468,39.62594415579402,0 5.865339539569869,39.62526366975773,0 5.862643222195174,39.624850667605436,0 5.8599,39.62471221109347,0 5.857156777804826,39.624850667605436,0 5.854460460430129,39.62526366975773,0 5.851857152352531,39.62594415579402,0 5.849391370904745,39.62688049008553,0 5.847105286341574,39.62805666169734,0 5.845038001654225,39.62945255765884,0 5.843224884362967,39.63104430630892,0 5.841696961662965,39.63280468489504,0 5.840480389252273,39.63470358451014,0 5.839596002949862,39.636708524469924,0 5.839058960833203,39.6387852073838,0 5.838878482110627,39.6408981054684,0 5.839057687316629,39.64301106810762,0 5.839593542704741,39.64508794028597,0 5.840476909940205,39.64709318132207,0 5.841692700393269,39.64899247330748,0 5.843220131534092,39.65075330881852,0 5.845033081163579,39.65234554780945,0 5.847100533512464,39.653741934111814,0 5.849387109634645,39.65491856264858,0 5.8518536730399955,39.65585528931047,0 5.8544580001846045,39.656536076423144,0 5.85715550428802,39.65694926783996,0 5.8599,39.657087788906544,0</coordinates>
          </LinearRing>
        </outerBoundaryIs>
      </Polygon>
    </Placemark>
    <Placemark>
      <Style>
        <LineStyle>
          <color>ff0000ff</color>
          <width>2</width>
        </LineStyle>
        <PolyStyle>
          <color>550000ff</color>
        </PolyStyle>
      </Style>
      <Polygon>
        <outerBoundaryIs>
          <LinearRing>
            <coordinates>0.9319,42.565769472266346,0 0.9390721475983357,42.565423026796616,0 0.9461213422968058,42.56438962959405,0 0.9529267510438466,42.56268699587553,0 0.959371743110157,42.56034431146545,0 0.9653458985296507,42.55740172977554,0 0.9707469072625018,42.553909680024255,0 0.9754823259127302,42.54992799885759,0 0.9794711615236478,42.545524900607575,0 0.9826452552151512,42.54077580421289,0 0.9849504421422781,42.53576203727737,0 0.9863474683609588,42.53056943981561,0 0.9868126495950857,42.525286891897046,0 0.9863382615164586,42.52000479062587,0 0.9849326558833268,42.51481350266804,0 0.9826201016438437,42.509801818852715,0 0.9794403548119227,42.50505543723357,0 0.975447965485022,42.50065550040727,0 0.9707113347239865,42.496677211866896,0 0.9653115380900418,42.4931885547427,0 0.9593409363778193,42.49024913447865,0 0.9529015974487378,42.48790916484705,0 0.9461035560172418,42.48620861425168,0 0.939062940741935,42.48517652655521,0 0.9319,42.484830527733656,0 0.9247370592580649,42.48517652655521,0 0.9176964439827581,42.48620861425168,0 0.9108984025512621,42.48790916484705,0 0.9044590636221806,42.49024913447865,0 0.8984884619099581,42.4931885547427,0 0.8930886652760133,42.496677211866896,0 0.8883520345149778,42.50065550040727,0 0.8843596451880772,42.50505543723357,0 0.881179898356156,42.509801818852715,0 0.8788673441166731,42.51481350266804,0 0.8774617384835413,42.52000479062587,0 0.876987350404914,42.525286891897046,0 0.8774525316390411,42.53056943981561,0 0.8788495578577218,42.53576203727737,0 0.8811547447848486,42.54077580421289,0 0.8843288384763522,42.545524900607575,0 0.8883176740872696,42.54992799885759,0 0.893053092737498,42.553909680024255,0 0.8984541014703492,42.55740172977554,0 0.9044282568898429,42.56034431146545,0 0.9108732489561533,42.56268699587553,0 0.9176786577031941,42.56438962959405,0 0.9247278524016642,42.565423026796616,0 0.9319,42.565769472266346,0</coordinates>
          </LinearRing>
        </outerBoundaryIs>
      </Polygon>
    </Placemark>
    <Placemark>
      <name>M 2.5 - E LA VALL DE BOÍ.L</name>
      <description>
    &lt;![CDATA[
    &lt;h3&gt;🌍 Terremoto&lt;/h3&gt;
    &lt;b&gt;Magnitud:&lt;/b&gt; 2.5 mbLg&lt;br&gt;
    &lt;b&gt;Profundidad:&lt;/b&gt; 7.0 km&lt;br&gt;
    &lt;b&gt;Fecha:&lt;/b&gt; 30/09/2026&lt;br&gt;
    &lt;b&gt;Hora:&lt;/b&gt; 16:43:45 UTC&lt;br&gt;
    &lt;b&gt;Localización:&lt;/b&gt; E LA VALL DE BOÍ.L&lt;br&gt;
    &lt;b&gt;Coordenadas:&lt;/b&gt; 42.5253, 0.9319
    ]]&gt;
    </description>
      <Style>
        <LineStyle>
          <color>ff0000ff</color>
          <width>3</width>
        </LineStyle>
        <PolyStyle>
          <color>ffff0000</color>
        </PolyStyle>
      </Style>
      <Polygon>
        <outerBoundaryIs>
          <LinearRing>
            <coordinates>0.9319,42.53878982408878,0 0.9342896916636135,42.53867439195247,0 0.9366384689156747,42.53833007188697,0 0.9389061191835139,42.53776275902032,0 0.941053821441887,42.536982166144355,0 0.9430448118767227,42.53600165712288,0 0.9448450140171119,42.53483801770686,0 0.9464236224792811,42.533511167713755,0 0.9477536302878183,42.532043819537634,0 0.948812290735828,42.53046108887783,0 0.9495815058977969,42.528790064391195,0 0.95004813519485,42.527059343673386,0 0.9502042188076414,42.525298543543926,0 0.9500471122116156,42.523537793042,0 0.9495795296459302,42.52180721782476,0 0.9488094958936026,42.5201364247961,0 0.947750207319084,42.5185539957782,0 0.9464198046536747,42.517086998871534,0 0.9448410615131245,42.515760525836995,0 0.9430409940509695,42.51459726337954,0 0.9410503984728982,42.51361710562756,0 0.9389033243409948,42.51283681439354,0 0.9366364926635539,42.5122697329849,0 0.9342886686802323,42.51192555841999,0 0.9319,42.51181017591122,0 0.9295113313197676,42.51192555841999,0 0.927163507336446,42.5122697329849,0 0.9248966756590051,42.51283681439354,0 0.9227496015271016,42.51361710562756,0 0.9207590059490304,42.51459726337954,0 0.9189589384868754,42.515760525836995,0 0.9173801953463252,42.517086998871534,0 0.9160497926809159,42.5185539957782,0 0.9149905041063972,42.5201364247961,0 0.9142204703540696,42.52180721782476,0 0.9137528877883843,42.523537793042,0 0.9135957811923585,42.525298543543926,0 0.9137518648051499,42.527059343673386,0 0.914218494102203,42.528790064391195,0 0.9149877092641718,42.53046108887783,0 0.9160463697121816,42.532043819537634,0 0.9173763775207188,42.533511167713755,0 0.918954985982888,42.53483801770686,0 0.9207551881232771,42.53600165712288,0 0.9227461785581129,42.536982166144355,0 0.9248938808164863,42.53776275902032,0 0.9271615310843252,42.53833007188697,0 0.9295103083363863,42.53867439195247,0 0.9319,42.53878982408878,0</coordinates>
          </LinearRing>
        </outerBoundaryIs>
      </Polygon>
    </Placemark>
    <Placemark>
      <Style>
        <LineStyle>
          <color>ff0000ff</color>
          <width>2</width>
        </LineStyle>
        <PolyStyle>
          <color>550000ff</color>
        </PolyStyle>
      </Style>
      <Polygon>
        <outerBoundaryIs>
          <LinearRing>
            <coordinates>-8.3032,40.967656798922434,0 -8.29788327502146,40.96739354817329,0 -8.292657646089356,40.96660830645767,0 -8.287612642008071,40.96531452776831,0 -8.282834684500045,40.96353437810799,0 -8.278405602660909,40.961298354236156,0 -8.27440122759578,40.9586447592725,0 -8.270890091640767,40.955619044307234,0 -8.267932254649917,40.95227302748945,0 -8.265578277504003,40.948664004175974,0 -8.263868360324167,40.94485376358684,0 -8.262831659906668,40.940907528997585,0 -8.262485797695867,40.93689283977734,0 -8.26283656624492,40.932878394535656,0 -8.26387783864217,40.92893287525535,0 -8.265591681870639,40.9251237725585,0 -8.267948671580434,40.92151623217526,0 -8.270908402349075,40.91817194226649,0 -8.274420184237707,40.9151480805031,0 -8.278423913372638,40.912496338741555,0 -8.282851101436487,40.91026204177939,0 -8.287626046381549,40.908483375050174,0 -8.292667124413281,40.907190734253966,0 -8.297888181363133,40.90640620784794,0 -8.3032,40.90614320107759,0 -8.30851181863687,40.90640620784794,0 -8.313732875586721,40.907190734253966,0 -8.318773953618454,40.908483375050174,0 -8.323548898563516,40.91026204177939,0 -8.327976086627364,40.912496338741555,0 -8.331979815762294,40.9151480805031,0 -8.335491597650925,40.91817194226649,0 -8.338451328419566,40.92151623217526,0 -8.340808318129364,40.9251237725585,0 -8.342522161357833,40.92893287525535,0 -8.343563433755083,40.932878394535656,0 -8.343914202304134,40.93689283977734,0 -8.343568340093334,40.940907528997585,0 -8.342531639675835,40.94485376358684,0 -8.340821722495999,40.948664004175974,0 -8.338467745350085,40.95227302748945,0 -8.335509908359235,40.955619044307234,0 -8.331998772404223,40.9586447592725,0 -8.327994397339092,40.961298354236156,0 -8.323565315499957,40.96353437810799,0 -8.31878735799193,40.96531452776831,0 -8.313742353910646,40.96660830645767,0 -8.308516724978542,40.96739354817329,0 -8.3032,40.967656798922434,0</coordinates>
          </LinearRing>
        </outerBoundaryIs>
      </Polygon>
    </Placemark>
    <Placemark>
      <name>M 1.9 - W AROUCA.POR</name>
      <description>
    &lt;![CDATA[
    &lt;h3&gt;🌍 Terremoto&lt;/h3&gt;
    &lt;b&gt;Magnitud:&lt;/b&gt; 1.9 mbLg&lt;br&gt;
    &lt;b&gt;Profundidad:&lt;/b&gt; 20.0 km&lt;br&gt;
    &lt;b&gt;Fecha:&lt;/b&gt; 30/09/2026&lt;br&gt;
    &lt;b&gt;Hora:&lt;/b&gt; 16:41:35 UTC&lt;br&gt;
    &lt;b&gt;Localización:&lt;/b&gt; W AROUCA.POR&lt;br&gt;
    &lt;b&gt;Coordenadas:&lt;/b&gt; 40.9369, -8.3032
    ]]&gt;
    </description>
      <Style>
        <LineStyle>
          <color>ff0000ff</color>
          <width>3</width>
        </LineStyle>
        <PolyStyle>
          <color>ffff0000</color>
        </PolyStyle>
      </Style>
      <Polygon>
        <outerBoundaryIs>
          <LinearRing>
            <coordinates>-8.3032,40.94715226630748,0 -8.301428303971926,40.947064543190606,0 -8.299686936073279,40.94680287549908,0 -8.29800570456159,40.94637174246918,0 -8.296413386910508,40.94577852413497,0 -8.294937236659981,40.9450333748337,0 -8.293602516518272,40.944149049175365,0 -8.292432065744306,40.94314068347379,0 -8.291445909237465,40.94202553640166,0 -8.290660915031783,40.940822693331555,0 -8.290090506046282,40.939552739446235,0 -8.289744430998377,40.9382374072339,0 -8.289628598360228,40.93689920441966,0 -8.289744976147219,40.935561028714154,0 -8.290091559192973,40.93424577598063,0 -8.290662404406127,40.93297594852783,0 -8.291447733341071,40.931773270227815,0 -8.292434100267533,40.9306583150345,0 -8.293604622811728,40.929650155244275,0 -8.294939271183251,40.92876603549729,0 -8.296415211014187,40.92802107807485,0 -8.29800719393602,40.92742802451073,0 -8.299687989220045,40.926997017913365,0 -8.301428849120807,40.92673542970066,0 -8.3032,40.92664773369254,0 -8.304971150879194,40.92673542970066,0 -8.306712010779957,40.926997017913365,0 -8.308392806063983,40.92742802451073,0 -8.309984788985814,40.92802107807485,0 -8.31146072881675,40.92876603549729,0 -8.312795377188275,40.929650155244275,0 -8.31396589973247,40.9306583150345,0 -8.314952266658931,40.931773270227815,0 -8.315737595593875,40.93297594852783,0 -8.31630844080703,40.93424577598063,0 -8.316655023852784,40.935561028714154,0 -8.316771401639775,40.93689920441966,0 -8.316655569001625,40.9382374072339,0 -8.316309493953721,40.939552739446235,0 -8.31573908496822,40.940822693331555,0 -8.314954090762537,40.94202553640166,0 -8.313967934255697,40.94314068347379,0 -8.31279748348173,40.944149049175365,0 -8.311462763340021,40.9450333748337,0 -8.309986613089494,40.94577852413497,0 -8.308394295438413,40.94637174246918,0 -8.306713063926722,40.94680287549908,0 -8.304971696028076,40.947064543190606,0 -8.3032,40.94715226630748,0</coordinates>
          </LinearRing>
        </outerBoundaryIs>
      </Polygon>
    </Placemark>
    <Placemark>
      <Style>
        <LineStyle>
          <color>ff0000ff</color>
          <width>2</width>
        </LineStyle>
        <PolyStyle>
          <color>550000ff</color>
        </PolyStyle>
      </Style>
      <Polygon>
        <outerBoundaryIs>
          <LinearRing>
            <coordinates>0.9222,42.55083802003178,0 0.9273627189961525,42.550588624399815,0 0.932436980470762,42.5498447106517,0 0.9373358487631407,42.548619024711726,0 0.941975405324829,42.546932566008955,0 0.9462761912465234,42.544814226286064,0 0.9501645719234418,42.542300292797705,0 0.9535740001611859,42.53943382456698,0 0.9564461558926115,42.536263912568074,0 0.9587319429329183,42.53284483670295,0 0.9603923257964504,42.529235134205585,0 0.9613989924798023,42.52549659560836,0 0.9617348322225452,42.52169320561602,0 0.9613942205272786,42.51789004713659,0 0.9603831070917621,42.51415218730091,0 0.9587189057150024,42.510543564557295,0 0.9564301886256847,42.50712589585477,0 0.9535561909875491,42.5039576225316,0 0.9501461345085279,42.501092912816745,0 0.9462583820696895,42.49858073784447,0 0.9419594380523647,42.49646403679788,0 0.9373228115388305,42.494778985258506,0 0.9324277617605363,42.493554379073075,0 0.9273579470404317,42.492811144087085,0 0.9222,42.492561979968244,0 0.9170420529595682,42.492811144087085,0 0.9119722382394637,42.493554379073075,0 0.9070771884611696,42.494778985258506,0 0.9024405619476353,42.49646403679788,0 0.8981416179303104,42.49858073784447,0 0.8942538654914721,42.501092912816745,0 0.890843809012451,42.5039576225316,0 0.8879698113743153,42.50712589585477,0 0.8856810942849977,42.510543564557295,0 0.8840168929082378,42.51415218730091,0 0.8830057794727213,42.51789004713659,0 0.8826651677774549,42.52169320561602,0 0.8830010075201976,42.52549659560836,0 0.8840076742035496,42.529235134205585,0 0.8856680570670816,42.53284483670295,0 0.8879538441073885,42.536263912568074,0 0.8908259998388142,42.53943382456698,0 0.8942354280765582,42.542300292797705,0 0.8981238087534766,42.544814226286064,0 0.902424594675171,42.546932566008955,0 0.9070641512368594,42.548619024711726,0 0.9119630195292381,42.5498447106517,0 0.9170372810038475,42.550588624399815,0 0.9222,42.55083802003178,0</coordinates>
          </LinearRing>
        </outerBoundaryIs>
      </Polygon>
    </Placemark>
    <Placemark>
      <name>M 1.8 - E LA VALL DE BOÍ.L</name>
      <description>
    &lt;![CDATA[
    &lt;h3&gt;🌍 Terremoto&lt;/h3&gt;
    &lt;b&gt;Magnitud:&lt;/b&gt; 1.8 mbLg&lt;br&gt;
    &lt;b&gt;Profundidad:&lt;/b&gt; 9.0 km&lt;br&gt;
    &lt;b&gt;Fecha:&lt;/b&gt; 30/09/2026&lt;br&gt;
    &lt;b&gt;Hora:&lt;/b&gt; 16:05:57 UTC&lt;br&gt;
    &lt;b&gt;Localización:&lt;/b&gt; E LA VALL DE BOÍ.L&lt;br&gt;
    &lt;b&gt;Coordenadas:&lt;/b&gt; 42.5217, 0.9222
    ]]&gt;
    </description>
      <Style>
        <LineStyle>
          <color>ff0000ff</color>
          <width>3</width>
        </LineStyle>
        <PolyStyle>
          <color>ffff0000</color>
        </PolyStyle>
      </Style>
      <Polygon>
        <outerBoundaryIs>
          <LinearRing>
            <coordinates>0.9222,42.53141267334394,0 0.9239203756601062,42.53132956721244,0 0.9256113016779369,42.53108167144378,0 0.9272438332259361,42.53067322952908,0 0.9287900264054615,42.53011123308612,0 0.930223417113109,42.52940530202192,0 0.9315194744152502,42.528567519661195,0 0.9326560206348059,42.527612225680414,0 0.93361361093823,42.52655577041182,0 0.9343758659196879,42.52541623474474,0 0.934929751500233,42.524213120439924,0 0.9352658013772503,42.52296701617708,0 0.9353782782567444,42.521699245068405,0 0.9352652711601656,42.52043149968341,0 0.934928727199478,42.519185470838536,0 0.9343744173396592,42.51798247650641,0 0.9336118367972549,42.516843097190794,0 0.9326540418376531,42.51578682399731,0 0.9315174258136717,42.514831725407205,0 0.9302214383159167,42.51399413843716,0 0.928788252264418,42.513288389448086,0 0.9272423846458283,42.51272654935659,0 0.9256102773771134,42.51231822741458,0 0.9239198454429821,42.512070407063916,0 0.9222,42.51198732665609,0 0.9204801545570179,42.512070407063916,0 0.9187897226228866,42.51231822741458,0 0.9171576153541717,42.51272654935659,0 0.9156117477355821,42.513288389448086,0 0.9141785616840833,42.51399413843716,0 0.9128825741863283,42.514831725407205,0 0.9117459581623469,42.51578682399731,0 0.9107881632027451,42.516843097190794,0 0.9100255826603407,42.51798247650641,0 0.9094712728005221,42.519185470838536,0 0.9091347288398345,42.52043149968341,0 0.9090217217432557,42.521699245068405,0 0.9091341986227497,42.52296701617708,0 0.909470248499767,42.524213120439924,0 0.9100241340803121,42.52541623474474,0 0.9107863890617699,42.52655577041182,0 0.9117439793651941,42.527612225680414,0 0.9128805255847497,42.528567519661195,0 0.9141765828868911,42.52940530202192,0 0.9156099735945386,42.53011123308612,0 0.917156166774064,42.53067322952908,0 0.9187886983220631,42.53108167144378,0 0.9204796243398938,42.53132956721244,0 0.9222,42.53141267334394,0</coordinates>
          </LinearRing>
        </outerBoundaryIs>
      </Polygon>
    </Placemark>
    <Placemark>
      <Style>
        <LineStyle>
          <color>ff0000ff</color>
          <width>2</width>
        </LineStyle>
        <PolyStyle>
          <color>550000ff</color>
        </PolyStyle>
      </Style>
      <Polygon>
        <outerBoundaryIs>
          <LinearRing>
            <coordinates>-8.0395,40.26645679892243,0 -8.034238786995665,40.266193551160626,0 -8.029067715865871,40.26540831820321,0 -8.024075377866266,40.26411455344521,0 -8.01934729011207,40.26233442193889,0 -8.014964425748614,40.26009841920506,0 -8.011001823414972,40.25744484692147,0 -8.00752730013856,40.25441915463144,0 -8.004600289899328,40.25107315893785,0 -8.00227082780728,40.24746415375746,0 -8.000578697196705,40.24365392707459,0 -7.999552754009323,40.239707701217554,0 -7.999210439677261,40.235693014961264,0 -7.9995574903875575,40.23167856671428,0 -8.000587847177146,40.22773303866527,0 -8.002283767834435,40.22392392203472,0 -8.004616138132372,40.2203163635028,0 -8.007544976547157,40.21697205246721,0 -8.011020123381405,40.21394816803814,0 -8.014982102160417,40.21129640361571,0 -8.019363138350664,40.20906208554051,0 -8.024088317899835,40.20728340068348,0 -8.029076865851865,40.205990745978646,0 -8.034243523377105,40.20520621082984,0 -8.0395,40.20494320107758,0 -8.044756476622895,40.20520621082984,0 -8.049923134148138,40.205990745978646,0 -8.054911682100165,40.20728340068348,0 -8.059636861649336,40.20906208554051,0 -8.064017897839586,40.21129640361571,0 -8.067979876618596,40.21394816803814,0 -8.071455023452843,40.21697205246721,0 -8.07438386186763,40.2203163635028,0 -8.076716232165566,40.22392392203472,0 -8.078412152822857,40.22773303866527,0 -8.079442509612443,40.23167856671428,0 -8.07978956032274,40.235693014961264,0 -8.079447245990679,40.239707701217554,0 -8.078421302803296,40.24365392707459,0 -8.07672917219272,40.24746415375746,0 -8.074399710100675,40.25107315893785,0 -8.07147269986144,40.25441915463144,0 -8.06799817658503,40.25744484692147,0 -8.064035574251387,40.26009841920506,0 -8.059652709887933,40.26233442193889,0 -8.054924622133735,40.26411455344521,0 -8.049932284134131,40.26540831820321,0 -8.044761213004335,40.266193551160626,0 -8.0395,40.26645679892243,0</coordinates>
          </LinearRing>
        </outerBoundaryIs>
      </Polygon>
    </Placemark>
    <Placemark>
      <name>M 1.9 - NE ARGANIL.POR</name>
      <description>
    &lt;![CDATA[
    &lt;h3&gt;🌍 Terremoto&lt;/h3&gt;
    &lt;b&gt;Magnitud:&lt;/b&gt; 1.9 mbLg&lt;br&gt;
    &lt;b&gt;Profundidad:&lt;/b&gt; 8.0 km&lt;br&gt;
    &lt;b&gt;Fecha:&lt;/b&gt; 30/09/2026&lt;br&gt;
    &lt;b&gt;Hora:&lt;/b&gt; 15:00:02 UTC&lt;br&gt;
    &lt;b&gt;Localización:&lt;/b&gt; NE ARGANIL.POR&lt;br&gt;
    &lt;b&gt;Coordenadas:&lt;/b&gt; 40.2357, -8.0395
    ]]&gt;
    </description>
      <Style>
        <LineStyle>
          <color>ff0000ff</color>
          <width>3</width>
        </LineStyle>
        <PolyStyle>
          <color>ffff0000</color>
        </PolyStyle>
      </Style>
      <Polygon>
        <outerBoundaryIs>
          <LinearRing>
            <coordinates>-8.0395,40.24595226630747,0 -8.037746789057863,40.245864543522316,0 -8.036023589477951,40.24560287680336,0 -8.034359898203451,40.24517174532055,0 -8.03278419220387,40.244578529002474,0 -8.031323440493223,40.24383338204894,0 -8.030002642120538,40.242949058909915,0 -8.028844398076172,40.24194069572744,0 -8.027868524462718,40.240825551002544,0 -8.027091713557407,40.23962270994782,0 -8.02652724855698,40.23835275760865,0 -8.026184776861538,40.23703742636792,0 -8.026070145738146,40.23569922388453,0 -8.026185303125922,40.23436104784663,0 -8.026528265221703,40.23304579414015,0 -8.027093151338459,40.23177596514019,0 -8.0278702853777,40.23057328482424,0 -8.028846362121648,40.229458327283595,0 -8.030004675450055,40.22845016497459,0 -8.031325404538736,40.227566042709036,0 -8.032785953118921,40.22682108293977,0 -8.034361335984581,40.22622802736048,0 -8.036024606142744,40.22579701921688,0 -8.037747315322289,40.22553543003218,0 -8.0395,40.225447733692526,0 -8.041252684677712,40.22553543003218,0 -8.042975393857256,40.22579701921688,0 -8.04463866401542,40.22622802736048,0 -8.04621404688108,40.22682108293977,0 -8.047674595461265,40.227566042709036,0 -8.048995324549947,40.22845016497459,0 -8.050153637878354,40.229458327283595,0 -8.0511297146223,40.23057328482424,0 -8.051906848661542,40.23177596514019,0 -8.052471734778297,40.23304579414015,0 -8.052814696874078,40.23436104784663,0 -8.052929854261857,40.23569922388453,0 -8.052815223138463,40.23703742636792,0 -8.052472751443021,40.23835275760865,0 -8.051908286442593,40.23962270994782,0 -8.051131475537282,40.240825551002544,0 -8.050155601923828,40.24194069572744,0 -8.048997357879465,40.242949058909915,0 -8.04767655950678,40.24383338204894,0 -8.04621580779613,40.244578529002474,0 -8.044640101796551,40.24517174532055,0 -8.04297641052205,40.24560287680336,0 -8.041253210942138,40.245864543522316,0 -8.0395,40.24595226630747,0</coordinates>
          </LinearRing>
        </outerBoundaryIs>
      </Polygon>
    </Placemark>
    <Placemark>
      <Style>
        <LineStyle>
          <color>ff0000ff</color>
          <width>2</width>
        </LineStyle>
        <PolyStyle>
          <color>550000ff</color>
        </PolyStyle>
      </Style>
      <Polygon>
        <outerBoundaryIs>
          <LinearRing>
            <coordinates>-0.9738,38.00846336671961,0 -0.9657550763565391,38.00804762655311,0 -0.9578480732535499,38.00680753348708,0 -0.9502145329402155,38.00476434691184,0 -0.9429852830409556,38.00195309161245,0 -0.9362841833321988,37.99842195401992,0 -0.9302259951910151,37.99423145191248,0 -0.9249144109400416,37.9894533921727,0 -0.9204402772863112,37.98416963489718,0 -0.9168800434072435,37.97847068550228,0 -0.9142944600600607,37.97245413941039,0 -0.9127275514757606,37.96622300638852,0 -0.9122058768465219,37.95988394360358,0 -0.9127380930301264,37.95354542792649,0 -0.9143148247809038,37.94731589894381,0 -0.9169088434752991,37.94130190451015,0 -0.9204755500277761,37.93560628050165,0 -0.924953752578683,37.93032639572155,0 -0.9302667246607945,37.925552491682375,0 -0.9363235249870597,37.921366145276714,0 -0.943020555810514,37.917838880182806,0 -0.9502433330407106,37.915030950274165,0 -0.9578684380024864,37.91299031536151,0 -0.9657656179271248,37.91175182633788,0 -0.9738,37.91133663328039,0 -0.9818343820728751,37.91175182633788,0 -0.9897315619975134,37.91299031536151,0 -0.9973566669592894,37.915030950274165,0 -1.004579444189486,37.917838880182806,0 -1.0112764750129402,37.921366145276714,0 -1.0173332753392055,37.925552491682375,0 -1.022646247421317,37.93032639572155,0 -1.0271244499722239,37.93560628050165,0 -1.0306911565247008,37.94130190451015,0 -1.0332851752190961,37.94731589894381,0 -1.0348619069698735,37.95354542792649,0 -1.035394123153478,37.95988394360358,0 -1.0348724485242393,37.96622300638852,0 -1.0333055399399393,37.97245413941039,0 -1.0307199565927565,37.97847068550228,0 -1.0271597227136888,37.98416963489718,0 -1.0226855890599584,37.9894533921727,0 -1.0173740048089848,37.99423145191248,0 -1.0113158166678011,37.99842195401992,0 -1.0046147169590443,38.00195309161245,0 -0.9973854670597843,38.00476434691184,0 -0.98975192674645,38.00680753348708,0 -0.9818449236434609,38.00804762655311,0 -0.9738,38.00846336671961,0</coordinates>
          </LinearRing>
        </outerBoundaryIs>
      </Polygon>
    </Placemark>
    <Placemark>
      <name>M 3.0 - SE BENIEL.MU</name>
      <description>
    &lt;![CDATA[
    &lt;h3&gt;🌍 Terremoto&lt;/h3&gt;
    &lt;b&gt;Magnitud:&lt;/b&gt; 3.0 mbLg&lt;br&gt;
    &lt;b&gt;Profundidad:&lt;/b&gt; 6.0 km&lt;br&gt;
    &lt;b&gt;Fecha:&lt;/b&gt; 30/09/2026&lt;br&gt;
    &lt;b&gt;Hora:&lt;/b&gt; 04:31:41 UTC&lt;br&gt;
    &lt;b&gt;Localización:&lt;/b&gt; SE BENIEL.MU&lt;br&gt;
    &lt;b&gt;Coordenadas:&lt;/b&gt; 37.9599, -0.9738
    ]]&gt;
    </description>
      <Style>
        <LineStyle>
          <color>ff0000ff</color>
          <width>3</width>
        </LineStyle>
        <PolyStyle>
          <color>ffff0000</color>
        </PolyStyle>
      </Style>
      <Polygon>
        <outerBoundaryIs>
          <LinearRing>
            <coordinates>-0.9738,37.97608778890654,0 -0.971119531650266,37.97594926972319,0 -0.9684849567714845,37.97553608382764,0 -0.9659413815439415,37.97485530549775,0 -0.9635323511767313,37.97391859028127,0 -0.961299103205091,37.97274197507211,0 -0.9592798606532843,37.971345603070844,0 -0.9575091772425589,37.96975337837951,0 -0.9560173459013226,37.96799255619177,0 -0.9548298807160415,37.96609327564526,0 -0.9539670811680798,37.96408804338413,0 -0.9534436860583616,37.96201117671895,0 -0.9532686229554999,37.95989821595568,0 -0.9534448573428563,37.95778531598225,0 -0.9539693439159869,37.955708627543835,0 -0.9548330807248645,37.953703678800544,0 -0.9560212650957889,37.95180476774168,0 -0.9575135485360771,37.95004437583143,0 -0.9592843861494446,37.948452612884736,0 -0.9613034744988094,37.947056702628124,0 -0.9635362703715445,37.94588051769649,0 -0.9659445815531651,37.94494417196771,0 -0.9684872195197382,37.94426367715571,0 -0.9711207029349611,37.94385066948696,0 -0.9738,37.94371221109346,0 -0.9764792970650388,37.94385066948696,0 -0.9791127804802618,37.94426367715571,0 -0.9816554184468348,37.94494417196771,0 -0.9840637296284555,37.94588051769649,0 -0.9862965255011905,37.947056702628124,0 -0.9883156138505551,37.948452612884736,0 -0.9900864514639229,37.95004437583143,0 -0.991578734904211,37.95180476774168,0 -0.9927669192751354,37.953703678800544,0 -0.993630656084013,37.955708627543835,0 -0.9941551426571436,37.95778531598225,0 -0.9943313770445001,37.95989821595568,0 -0.9941563139416383,37.96201117671895,0 -0.9936329188319201,37.96408804338413,0 -0.9927701192839585,37.96609327564526,0 -0.9915826540986773,37.96799255619177,0 -0.990090822757441,37.96975337837951,0 -0.9883201393467157,37.971345603070844,0 -0.9863008967949088,37.97274197507211,0 -0.9840676488232686,37.97391859028127,0 -0.9816586184560584,37.97485530549775,0 -0.9791150432285155,37.97553608382764,0 -0.9764804683497339,37.97594926972319,0 -0.9738,37.97608778890654,0</coordinates>
          </LinearRing>
        </outerBoundaryIs>
      </Polygon>
    </Placemark>
    <Placemark>
      <Style>
        <LineStyle>
          <color>ff0000ff</color>
          <width>2</width>
        </LineStyle>
        <PolyStyle>
          <color>550000ff</color>
        </PolyStyle>
      </Style>
      <Polygon>
        <outerBoundaryIs>
          <LinearRing>
            <coordinates>-8.7871,38.23950046225046,0 -8.782795763195315,38.23927880163892,0 -8.778565250664826,38.238617616493,0 -8.774480919943883,38.23752823164237,0 -8.7706127171266,38.23602930548308,0 -8.767026875834475,38.23414650944923,0 -8.763784780695312,38.23191208710262,0 -8.760941915000013,38.22936430049831,0 -8.758546910681613,38.2265467734315,0 -8.7566407169177,38.22350774294495,0 -8.755255901532276,38.22029923204568,0 -8.75441609700908,38.216976157917784,0 -8.754135600371848,38.21359539100328,0 -8.754419133487778,38.210214781136486,0 -8.7552617675588,38.20689216744918,0 -8.756649012732266,38.20368438900513,0 -8.75855707093844,38.20064631307288,0 -8.76095324729462,38.19782989760817,0 -8.763796512750682,38.19528330389995,0 -8.767038208130424,38.19305007444951,0 -8.770622877385753,38.19116839001803,0 -8.774489215761138,38.18967041841339,0 -8.778571116693676,38.188581766018345,0 -8.782798799675353,38.18792104131328,0 -8.7871,38.187699537749545,0 -8.791401200324648,38.18792104131328,0 -8.795628883306327,38.188581766018345,0 -8.799710784238865,38.18967041841339,0 -8.80357712261425,38.19116839001803,0 -8.807161791869579,38.19305007444951,0 -8.810403487249319,38.19528330389995,0 -8.813246752705384,38.19782989760817,0 -8.815642929061562,38.20064631307288,0 -8.817550987267735,38.20368438900513,0 -8.818938232441203,38.20689216744918,0 -8.819780866512223,38.210214781136486,0 -8.820064399628155,38.21359539100328,0 -8.81978390299092,38.216976157917784,0 -8.818944098467727,38.22029923204568,0 -8.817559283082304,38.22350774294495,0 -8.815653089318388,38.2265467734315,0 -8.81325808499999,38.22936430049831,0 -8.81041521930469,38.23191208710262,0 -8.807173124165526,38.23414650944923,0 -8.803587282873401,38.23602930548308,0 -8.799719080056118,38.23752823164237,0 -8.795634749335175,38.238617616493,0 -8.791404236804688,38.23927880163892,0 -8.7871,38.23950046225046,0</coordinates>
          </LinearRing>
        </outerBoundaryIs>
      </Polygon>
    </Placemark>
    <Placemark>
      <name>M 1.6 - W GRANDOLA.POR</name>
      <description>
    &lt;![CDATA[
    &lt;h3&gt;🌍 Terremoto&lt;/h3&gt;
    &lt;b&gt;Magnitud:&lt;/b&gt; 1.6 mbLg&lt;br&gt;
    &lt;b&gt;Profundidad:&lt;/b&gt; 7.0 km&lt;br&gt;
    &lt;b&gt;Fecha:&lt;/b&gt; 30/09/2026&lt;br&gt;
    &lt;b&gt;Hora:&lt;/b&gt; 03:34:09 UTC&lt;br&gt;
    &lt;b&gt;Localización:&lt;/b&gt; W GRANDOLA.POR&lt;br&gt;
    &lt;b&gt;Coordenadas:&lt;/b&gt; 38.2136, -8.7871
    ]]&gt;
    </description>
      <Style>
        <LineStyle>
          <color>ff0000ff</color>
          <width>3</width>
        </LineStyle>
        <PolyStyle>
          <color>ffff0000</color>
        </PolyStyle>
      </Style>
      <Polygon>
        <outerBoundaryIs>
          <LinearRing>
            <coordinates>-8.7871,38.22223348741682,0 -8.785665592028325,38.22215961800869,0 -8.784255735788255,38.22193927415589,0 -8.782894562337162,38.22157622730907,0 -8.781605368621838,38.2210766913783,0 -8.780410218391456,38.220449216269664,0 -8.779329564320323,38.219704541409314,0 -8.77838189783059,38.218855411774,0 -8.777583432621967,38.217916359590305,0 -8.776947827328556,38.21690345545355,0 -8.776485952042881,38.215834033140716,0 -8.776205702686427,38.21472639284023,0 -8.776111866378228,38.21359948788923,0 -8.776206040073006,38.212472600388004,0 -8.776486603823702,38.21136501124759,0 -8.776948749085834,38.21029567031869,0 -8.777584561539472,38.20928287224355,0 -8.778383156974463,38.20834394357121,0 -8.779330867881992,38.207494946479926,0 -8.780411477535345,38.20675040416359,0 -8.781606497539372,38.20612305256631,0 -8.782895484094473,38.20562362269716,0 -8.784256387569105,38.205260657234284,0 -8.785665929414918,38.20504036454157,0 -8.7871,38.20496651258319,0 -8.788534070585085,38.20504036454157,0 -8.789943612430898,38.205260657234284,0 -8.791304515905528,38.20562362269716,0 -8.792593502460631,38.20612305256631,0 -8.793788522464656,38.20675040416359,0 -8.794869132118011,38.207494946479926,0 -8.79581684302554,38.20834394357121,0 -8.79661543846053,38.20928287224355,0 -8.797251250914169,38.21029567031869,0 -8.7977133961763,38.21136501124759,0 -8.797993959926997,38.212472600388004,0 -8.798088133621775,38.21359948788923,0 -8.797994297313576,38.21472639284023,0 -8.79771404795712,38.215834033140716,0 -8.797252172671447,38.21690345545355,0 -8.796616567378036,38.217916359590305,0 -8.795818102169413,38.218855411774,0 -8.794870435679679,38.219704541409314,0 -8.793789781608547,38.220449216269664,0 -8.792594631378163,38.2210766913783,0 -8.791305437662839,38.22157622730907,0 -8.789944264211746,38.22193927415589,0 -8.788534407971678,38.22215961800869,0 -8.7871,38.22223348741682,0</coordinates>
          </LinearRing>
        </outerBoundaryIs>
      </Polygon>
    </Placemark>
    <Placemark>
      <Style>
        <LineStyle>
          <color>ff0000ff</color>
          <width>2</width>
        </LineStyle>
        <PolyStyle>
          <color>550000ff</color>
        </PolyStyle>
      </Style>
      <Polygon>
        <outerBoundaryIs>
          <LinearRing>
            <coordinates>-16.5343,43.549051155626145,0 -16.522639101120205,43.548496608430895,0 -16.51117835750246,43.54684248560758,0 -16.500114456296394,43.54411717849846,0 -16.489637210753997,43.54036745915581,0 -16.479926277824443,43.535657670383124,0 -16.47114805766939,43.53006861221238,0 -16.463452829960872,43.52369614473742,0 -16.456972177082363,43.51664953221638,0 -16.45181673867892,43.5090495578536,0 -16.448074335545755,43.501026442590685,0 -16.44580849377076,43.49271760451165,0 -16.445057392529304,43.484265298047795,0 -16.445833251142652,43.475814174021515,0 -16.4481221631241,43.46750880267455,0 -16.451884377108083,43.4594912021877,0 -16.45705501693226,43.451898414824164,0 -16.463545225847422,43.44486017174548,0 -16.471243712974154,43.43849668579387,0 -16.480018673796483,43.432916609152045,0 -16.48972005075197,43.42821518983692,0 -16.500182094896537,43.42447265751428,0 -16.51122618522888,43.421752865201995,0 -16.522663858577587,43.420102209125965,0 -16.5343,43.41954884437384,0 -16.545936141422416,43.420102209125965,0 -16.557373814771122,43.421752865201995,0 -16.568417905103463,43.42447265751428,0 -16.578879949248034,43.42821518983692,0 -16.58858132620352,43.432916609152045,0 -16.597356287025846,43.43849668579387,0 -16.60505477415258,43.44486017174548,0 -16.611544983067745,43.451898414824164,0 -16.616715622891917,43.4594912021877,0 -16.620477836875903,43.46750880267455,0 -16.622766748857348,43.475814174021515,0 -16.6235426074707,43.484265298047795,0 -16.622791506229245,43.49271760451165,0 -16.62052566445425,43.501026442590685,0 -16.616783261321082,43.5090495578536,0 -16.61162782291764,43.51664953221638,0 -16.605147170039128,43.52369614473742,0 -16.597451942330615,43.53006861221238,0 -16.58867372217556,43.535657670383124,0 -16.578962789246003,43.54036745915581,0 -16.56848554370361,43.54411717849846,0 -16.557421642497545,43.54684248560758,0 -16.545960898879798,43.548496608430895,0 -16.5343,43.549051155626145,0</coordinates>
          </LinearRing>
        </outerBoundaryIs>
      </Polygon>
    </Placemark>
    <Placemark>
      <name>M 4.0 - ATLÁNTICO</name>
      <description>
    &lt;![CDATA[
    &lt;h3&gt;🌍 Terremoto&lt;/h3&gt;
    &lt;b&gt;Magnitud:&lt;/b&gt; 4.0 M(mb)&lt;br&gt;
    &lt;b&gt;Profundidad:&lt;/b&gt; 1.0 km&lt;br&gt;
    &lt;b&gt;Fecha:&lt;/b&gt; 30/09/2026&lt;br&gt;
    &lt;b&gt;Hora:&lt;/b&gt; 02:33:23 UTC&lt;br&gt;
    &lt;b&gt;Localización:&lt;/b&gt; ATLÁNTICO&lt;br&gt;
    &lt;b&gt;Coordenadas:&lt;/b&gt; 43.4843, -16.5343
    ]]&gt;
    </description>
      <Style>
        <LineStyle>
          <color>ff0000ff</color>
          <width>3</width>
        </LineStyle>
        <PolyStyle>
          <color>ffff0000</color>
        </PolyStyle>
      </Style>
      <Polygon>
        <outerBoundaryIs>
          <LinearRing>
            <coordinates>-16.5343,43.505883718542044,0 -16.530415789857194,43.505699001114785,0 -16.52659810990891,43.50514801275701,0 -16.52291234720294,43.50424019087589,0 -16.519421622381138,43.502991084213114,0 -16.516185705832434,43.50142208573281,0 -16.51325999206502,43.4995600651896,0 -16.51069455004695,43.497436907758534,0 -16.50853326588966,43.49508896673243,0 -16.506813092585052,43.492556439769196,0 -16.505563419588825,43.489882679480864,0 -16.50480557290885,43.487113450270314,0 -16.504552454050152,43.48429614422618,0 -16.50480832373165,43.48147896956432,0 -16.505568733770502,43.47871012554711,0 -16.506820607973093,43.476036978012914,0 -16.508542470323,43.47350524960645,0 -16.510704816258844,43.471158238519465,0 -16.513270620430205,43.46903607903607,0 -16.516195972045388,43.467175056440574,0 -16.519430826816304,43.465606987899584,0 -16.522919862593092,43.46435867979384,0 -16.526603424092418,43.46345147066711,0 -16.53041854068105,43.46290086750287,0 -16.5343,43.46271628145794,0 -16.538181459318952,43.46290086750287,0 -16.541996575907586,43.46345147066711,0 -16.54568013740691,43.46435867979384,0 -16.5491691731837,43.465606987899584,0 -16.552404027954612,43.467175056440574,0 -16.555329379569798,43.46903607903607,0 -16.557895183741156,43.471158238519465,0 -16.560057529677003,43.47350524960645,0 -16.56177939202691,43.476036978012914,0 -16.5630312662295,43.47871012554711,0 -16.56379167626835,43.48147896956432,0 -16.56404754594985,43.48429614422618,0 -16.563794427091153,43.487113450270314,0 -16.56303658041118,43.489882679480864,0 -16.561786907414948,43.492556439769196,0 -16.56006673411034,43.49508896673243,0 -16.557905449953054,43.497436907758534,0 -16.55534000793498,43.4995600651896,0 -16.552414294167566,43.50142208573281,0 -16.549178377618865,43.502991084213114,0 -16.545687652797064,43.50424019087589,0 -16.542001890091093,43.50514801275701,0 -16.538184210142806,43.505699001114785,0 -16.5343,43.505883718542044,0</coordinates>
          </LinearRing>
        </outerBoundaryIs>
      </Polygon>
    </Placemark>
    <Placemark>
      <Style>
        <LineStyle>
          <color>ff0000ff</color>
          <width>2</width>
        </LineStyle>
        <PolyStyle>
          <color>550000ff</color>
        </PolyStyle>
      </Style>
      <Polygon>
        <outerBoundaryIs>
          <LinearRing>
            <coordinates>-16.2444,28.079481683359806,0 -16.24080779137979,28.07927390345193,0 -16.237277087536114,28.078654121287997,0 -16.233868338077606,28.077632948513205,0 -16.23063990052299,28.076227868812186,0 -16.227647039545534,28.074462937998224,0 -16.224940979660275,28.072368371421273,0 -16.22256802768006,28.069980025822204,0 -16.220568780028845,28.0673387845775,0 -16.218977428499716,28.06448985693761,0 -16.21782117631048,28.06148200333346,0 -16.21711977437347,28.058366700084854,0 -16.216885185596162,28.055197257870024,0 -16.21712138280298,28.052027909090988,0 -16.21782428355773,28.04891287978228,0 -16.218981822811017,28.04590546195358,0 -16.22057416193923,28.04305710222733,0 -16.22257403042131,28.040416522332105,0 -16.22494719415553,28.03802888644848,0 -16.227653042287216,28.035935029587012,0 -16.230645282434132,28.03417076012262,0 -16.23387273238978,28.03276624833539,0 -16.23728019478412,28.031745511336183,0 -16.240809399809738,28.031126003112238,0 -16.2444,28.030918316640193,0 -16.24799060019026,28.031126003112238,0 -16.251519805215874,28.031745511336183,0 -16.254927267610213,28.03276624833539,0 -16.258154717565866,28.03417076012262,0 -16.26114695771278,28.035935029587012,0 -16.26385280584447,28.03802888644848,0 -16.266225969578688,28.040416522332105,0 -16.26822583806077,28.04305710222733,0 -16.26981817718898,28.04590546195358,0 -16.27097571644227,28.04891287978228,0 -16.27167861719702,28.052027909090988,0 -16.271914814403836,28.055197257870024,0 -16.27168022562653,28.058366700084854,0 -16.270978823689518,28.06148200333346,0 -16.269822571500278,28.06448985693761,0 -16.268231219971153,28.0673387845775,0 -16.266231972319932,28.069980025822204,0 -16.263859020339723,28.072368371421273,0 -16.261152960454464,28.074462937998224,0 -16.258160099477006,28.076227868812186,0 -16.25493166192239,28.077632948513205,0 -16.251522912463884,28.078654121287997,0 -16.247992208620204,28.07927390345193,0 -16.2444,28.079481683359806,0</coordinates>
          </LinearRing>
        </outerBoundaryIs>
      </Polygon>
    </Placemark>
    <Placemark>
      <name>M 1.5 - ATLÁNTICO-CANARIAS</name>
      <description>
    &lt;![CDATA[
    &lt;h3&gt;🌍 Terremoto&lt;/h3&gt;
    &lt;b&gt;Magnitud:&lt;/b&gt; 1.5 mbLg&lt;br&gt;
    &lt;b&gt;Profundidad:&lt;/b&gt; 10.0 km&lt;br&gt;
    &lt;b&gt;Fecha:&lt;/b&gt; 30/09/2026&lt;br&gt;
    &lt;b&gt;Hora:&lt;/b&gt; 02:31:15 UTC&lt;br&gt;
    &lt;b&gt;Localización:&lt;/b&gt; ATLÁNTICO-CANARIAS&lt;br&gt;
    &lt;b&gt;Coordenadas:&lt;/b&gt; 28.0552, -16.2444
    ]]&gt;
    </description>
      <Style>
        <LineStyle>
          <color>ff0000ff</color>
          <width>3</width>
        </LineStyle>
        <PolyStyle>
          <color>ffff0000</color>
        </PolyStyle>
      </Style>
      <Polygon>
        <outerBoundaryIs>
          <LinearRing>
            <coordinates>-16.2444,28.06329389445327,0 -16.24320277595672,28.063224644872477,0 -16.242026041311057,28.06301808127468,0 -16.2408899345703,28.062677738797422,0 -16.239813898486137,28.06220944203101,0 -16.23881634713491,28.061621205273884,0 -16.237914350656823,28.06092309529593,0 -16.237123343061146,28.060127058965318,0 -16.236456858105317,28.0592467186971,0 -16.235926297769687,28.058297139232693,0 -16.235540737286726,28.05729456975017,0 -16.23530677005237,28.056256165726584,0 -16.23522839506009,28.055199695318887,0 -16.23530694876678,28.054143235292948,0 -16.23554108253645,28.053104861707133,0 -16.235926786026525,28.052102340644108,0 -16.23645745609538,28.051152824281225,0 -16.237124010032403,28.05027255749629,0 -16.237915041156278,28.049476600022953,0 -16.23881701410617,28.048778568902275,0 -16.23981449647621,28.048190405628436,0 -16.240890422827157,28.047722171963546,0 -16.24202638656079,28.047381877905796,0 -16.24320295467113,28.04717534474577,0 -16.2444,28.04710610554673,0 -16.245597045328868,28.04717534474577,0 -16.246773613439206,28.047381877905796,0 -16.24790957717284,28.047722171963546,0 -16.248985503523787,28.048190405628436,0 -16.249982985893823,28.048778568902275,0 -16.25088495884372,28.049476600022953,0 -16.251675989967595,28.05027255749629,0 -16.252342543904618,28.051152824281225,0 -16.25287321397347,28.052102340644108,0 -16.253258917463548,28.053104861707133,0 -16.253493051233217,28.054143235292948,0 -16.253571604939907,28.055199695318887,0 -16.253493229947622,28.056256165726584,0 -16.253259262713268,28.05729456975017,0 -16.25287370223031,28.058297139232693,0 -16.25234314189468,28.0592467186971,0 -16.251676656938848,28.060127058965318,0 -16.250885649343175,28.06092309529593,0 -16.249983652865083,28.061621205273884,0 -16.248986101513857,28.06220944203101,0 -16.247910065429693,28.062677738797422,0 -16.246773958688937,28.06301808127468,0 -16.245597224043276,28.063224644872477,0 -16.2444,28.06329389445327,0</coordinates>
          </LinearRing>
        </outerBoundaryIs>
      </Polygon>
    </Placemark>
  </Document>
</kml>